ISS OBJECT XW           
1 66910U 98067XW  26062.45772056  .00132206  00000+0  12184-2 0  9995
2 66910  51.6243  97.2785 0004869  51.9689 308.1746 15.66680726 14201
ISS OBJECT XX           
1 66911U 98067XX  26062.41982124  .00225432  00000+0  16402-2 0  9992
2 66911  51.6218  96.2644 0006927  45.3691 314.7871 15.72076747 14205
ISS OBJECT XY           
1 66912U 98067XY  26062.31581748  .00087307  00000+0  96247-3 0  9992
2 66912  51.6268  99.3453 0002831  54.0828 306.0429 15.62356640 14151
ISS OBJECT XZ           
1 67683U 98067XZ  26062.41550679  .00040070  00000+0  67495-3 0  9997
2 67683  51.6308 103.0125 0009504 164.7935 195.3341 15.51247194  3817
GXIBA-1                 
1 67684U 98067YA  26062.26849864  .00074906  00000+0  11656-2 0  9990
2 67684  51.6298 103.5313 0010978 154.9471 205.2054 15.53164734  3792
CORAL                   
1 67685U 98067YB  26062.54120903  .00050636  00000+0  83964-3 0  9994
2 67685  51.6310 102.3518 0011409 161.3532 198.7877 15.51560114  3836
ISS OBJECT YC           
1 67686U 98067YC  26062.40877040  .00051568  00000+0  84429-3 0  9993
2 67686  51.6308 102.9692 0007752 129.1230 231.0450 15.51946136  3814
LEOPARD                 
1 67687U 98067YD  26062.41381876  .00042870  00000+0  71815-3 0  9993
2 67687  51.6311 103.0024 0007735 132.4796 227.6848 15.51386771  3731
ISS OBJECT YE           
1 67688U 98067YE  26062.41037585  .00049325  00000+0  81368-3 0  9995
2 67688  51.6313 102.9800 0007700 129.5648 230.6023 15.51755615  3735
CREW DRAGON 12          
1 67796U 26031A   26062.89864036  .00010104  00000+0  19499-3 0  9997
2 67796  51.6318 100.9868 0008208 154.1881 205.9518 15.48428601555340
